SAUDISAT 5A             
1 43831U 18102A   26157.88328288  .00006108  00000+0  22637-3 0  9996
2 43831  97.3068 219.6634 0010220 161.5847 198.5764 15.27940696414101
SAUDISAT 5B             
1 43833U 18102C   26157.83839831  .00006285  00000+0  23098-3 0  9992
2 43833  97.3175 222.6703 0010841 164.4790 195.6784 15.28203279414213
GAOFEN-10R              
1 44622U 19066A   26157.83093764  .00001324  00000+0  16951-3 0  9995
2 44622  98.0497 111.3351 0005936 156.6212 203.5272 14.83038295360843
CARTOSAT-3              
1 44804U 19081A   26157.81664500  .00004110  00000+0  19816-3 0  9993
2 44804  97.4309 219.8500 0012220 182.4020 177.7158 15.19205815361893
GAOFEN-12 01            
1 44819U 19082A   26157.87391500  .00000450  00000+0  65488-4 0  9993
2 44819  97.8101 164.5256 0002489  82.6468 277.5027 14.80450185352567
CSG-1                   
1 44873U 19092A   26157.85725196  .00000453  00000+0  63491-4 0  9999
2 44873  97.8887 341.6095 0001456  90.9287 269.2093 14.82156140349946
NEMO-HD                 
1 46277U 20061F   26157.82835237  .00013028  00000+0  28388-3 0  9999
2 46277  97.1919 219.8872 0002629  92.4519 267.7031 15.44384661320384
SENTINEL-6A             
1 46984U 20086A   26157.70138407 -.00000046  00000+0  64048-4 0  9994
2 46984  66.0384 156.8315 0007957 270.3047  89.7057 12.80929701258987
CAS500-1                
1 47932U 21022A   26157.86029799  .00008464  00000+0  39344-3 0  9990
2 47932  97.3906  53.3218 0004312 342.9556  17.1534 15.20214168289197
GAOFEN-12 02            
1 48079U 21026A   26157.88387189  .00000427  00000+0  62955-4 0  9995
2 48079  97.9920 156.1068 0003317 268.0490  92.0342 14.80288247280235
PLEIADES NEO 3          
1 48268U 21034A   26156.57002736  .00000281  00000+0  42291-4 0  9990
2 48268  97.8935 231.5042 0001394  99.1938 260.9433 14.81673923275931
PLEIADES NEO 4          
1 49070U 21073E   26157.14404851  .00000450  00000+0  63795-4 0  9993
2 49070  97.8928 232.0648 0001391  84.3469 275.7903 14.81670310259738
LANDSAT 9               
1 49260U 21088A   26157.62133424  .00000364  00000+0  90967-4 0  9993
2 49260  98.2277 227.9262 0001446  89.2001 270.9363 14.57103573249464
CSG-2                   
1 51444U 22008A   26157.35089398  .00000865  00000+0  11522-3 0  9998
2 51444  97.8885 341.1056 0001500  82.8328 277.3056 14.82168009234987
GAOFEN-12 03            
1 52912U 22069A   26157.84430646  .00000915  00000+0  12763-3 0  9990
2 52912  97.8287  45.9746 0001582 111.3364 248.8017 14.80017545213081
SWOT                    
1 54754U 22173A   26157.84173942  .00000002  00000+0  30488-5 0  9998
2 54754  77.6112  49.2760 0000184  96.4914 263.6258 14.00168349177705
GAOFEN-12 04            
1 57654U 23123A   26157.86234319  .00001167  00000+0  16039-3 0  9991
2 57654  97.9129  76.0283 0001782  87.7063 272.4353 14.80209240151105
PARS 1                  
1 59065U 24039Q   26157.82644662  .00013113  00000+0  27458-3 0  9999
2 59065  97.4823 138.4221 0010812 142.7945 217.4055 15.45510691127040
RESURS-P 4              
1 59371U 24061A   26157.87853920  .00003611  00000+0  11910-3 0  9996
2 59371  97.2748 105.9576 0001389 131.7378 228.3983 15.32072520122184
LEGION 1                
1 59625U 24081A   26157.80257003  .00004028  00000+0  20942-3 0  9991
2 59625  97.5013 235.7709 0010454  51.3567 308.8600 15.16594946115965
LEGION 2                
1 59626U 24081B   26157.83241344  .00004522  00000+0  23471-3 0  9995
2 59626  97.5013 235.8983 0011777  20.1765 339.9931 15.16574443115977
ALOS-4 (DAICHI-4)       
1 60182U 24123A   26157.81067847  .00001689  00000+0  23294-3 0  9997
2 60182  97.9239 255.1300 0001682  98.6257 261.5145 14.79475508104344
LEGION 3                
1 60452U 24146A   26157.78552153  .00004719  00000+0  25519-3 0  9996
2 60452  45.0006  86.3374 0006810 103.8680 256.2957 15.15957597100445
LEGION 4                
1 60453U 24146B   26157.78855919  .00004367  00000+0  23680-3 0  9999
2 60453  44.9999 178.2322 0014016 254.4856 105.4475 15.15960534 99299
SENTINEL-2C             
1 60989U 24157A   26157.61309568  .00000115  00000+0  60587-4 0  9996
2 60989  98.5692 232.5443 0001202  78.7355 281.3963 14.30814942 91475
IONOSFERA-M 1           
1 61735U 24199A   26157.85587326  .00000051  00000+0  42279-4 0  9995
2 61735  98.7186  31.1366 0001630 124.2949 235.8383 14.22752393126238
IONOSFERA-M 2           
1 61736U 24199B   26157.81986794  .00000052  00000+0  43006-4 0  9994
2 61736  98.7185  31.0117 0001446  48.1573 311.9729 14.22755595129356
PRSC-EO1                
1 62725U 25012A   26156.78537380  .00004564  00000+0  23021-3 0  9992
2 62725  97.4223 229.4677 0004308 306.3423  53.7413 15.17617532 76468
BIOMASS                 
1 63772U 25090A   26157.80614671  .00000851  00000+0  15846-3 0  9995
2 63772  98.0739 345.2743 0001521  87.8145 272.3234 14.67536140 59164
GOSAT-GW (IBUKI GW)     
1 64694U 25141A   26157.82656219  .00000830  00000+0  15470-3 0  9992
2 64694  98.0571  95.3121 0001424  84.1841 275.9526 14.67553247 50329
IONOSFERA-M 3           
1 64876U 25155A   26157.82828082  .00000066  00000+0  49553-4 0  9999
2 64876  98.6025 119.9944 0000392 180.9770 179.1407 14.21484698 44932
