OBJECT_NAME,OBJECT_ID,EPOCH,MEAN_MOTION,ECCENTRICITY,INCLINATION,RA_OF_ASC_NODE,ARG_OF_PERICENTER,MEAN_ANOMALY,EPHEMERIS_TYPE,CLASSIFICATION_TYPE,NORAD_CAT_ID,ELEMENT_SET_NO,REV_AT_EPOCH,BSTAR,MEAN_MOTION_DOT,MEAN_MOTION_DDOT
SAUDISAT 5A,2018-102A,2026-06-06T21:11:55.640832,15.27940696,.001022,97.3068,219.6634,161.5847,198.5764,0,U,43831,999,41410,.22637E-3,.6108E-4,0
SAUDISAT 5B,2018-102C,2026-06-06T20:07:17.613984,15.28203279,.0010841,97.3175,222.6703,164.4790,195.6784,0,U,43833,999,41421,.23098E-3,.6285E-4,0
GAOFEN-10R,2019-066A,2026-06-06T19:56:33.012096,14.83038295,.0005936,98.0497,111.3351,156.6212,203.5272,0,U,44622,999,36084,.16951E-3,.1324E-4,0
CARTOSAT-3,2019-081A,2026-06-06T19:35:58.128000,15.19205815,.001222,97.4309,219.8500,182.4020,177.7158,0,U,44804,999,36189,.19816E-3,.411E-4,0
GAOFEN-12 01,2019-082A,2026-06-06T20:58:26.256000,14.80450185,.0002489,97.8101,164.5256,82.6468,277.5027,0,U,44819,999,35256,.65488E-4,.45E-5,0
CSG-1,2019-092A,2026-06-06T20:34:26.569344,14.82156140,.0001456,97.8887,341.6095,90.9287,269.2093,0,U,44873,999,34994,.63491E-4,.453E-5,0
NEMO-HD,2020-061F,2026-06-06T19:52:49.644768,15.44384661,.0002629,97.1919,219.8872,92.4519,267.7031,0,U,46277,999,32038,.28388E-3,.13028E-3,0
SENTINEL-6A,2020-086A,2026-06-06T16:49:59.583648,12.80929701,.0007957,66.0384,156.8315,270.3047,89.7057,0,U,46984,999,25898,.64048E-4,-.46E-6,0
CAS500-1,2021-022A,2026-06-06T20:38:49.746336,15.20214168,.0004312,97.3906,53.3218,342.9556,17.1534,0,U,47932,999,28919,.39344E-3,.8464E-4,0
GAOFEN-12 02,2021-026A,2026-06-06T21:12:46.531296,14.80288247,.0003317,97.9920,156.1068,268.0490,92.0342,0,U,48079,999,28023,.62955E-4,.427E-5,0
PLEIADES NEO 3,2021-034A,2026-06-05T13:40:50.363904,14.81673923,.00013942,97.8935,231.5042,99.1938,260.9433,0,U,48268,999,27593,.42290641E-4,.281E-5,0
PLEIADES NEO 4,2021-073E,2026-06-06T03:27:25.791264,14.81670310,.00013915,97.8928,232.0648,84.3469,275.7903,0,U,49070,999,25973,.63794892E-4,.45E-5,0
LANDSAT 9,2021-088A,2026-06-06T14:54:43.278336,14.57103573,.0001446,98.2277,227.9262,89.2001,270.9363,0,U,49260,999,24946,.90967E-4,.364E-5,0
CSG-2,2022-008A,2026-06-06T08:25:17.239872,14.82168009,.00015003,97.8885,341.1056,82.8328,277.3056,0,U,51444,999,23498,.11521837E-3,.865E-5,0
GAOFEN-12 03,2022-069A,2026-06-06T20:15:48.078144,14.80017545,.0001582,97.8287,45.9746,111.3364,248.8017,0,U,52912,999,21308,.12763E-3,.915E-5,0
SWOT,2022-173A,2026-06-06T20:12:06.285888,14.00168349,.0000184,77.6112,49.2760,96.4914,263.6258,0,U,54754,999,17770,.30488E-5,.2E-7,0
GAOFEN-12 04,2023-123A,2026-06-06T20:41:46.451616,14.80209240,.0001782,97.9129,76.0283,87.7063,272.4353,0,U,57654,999,15110,.16039E-3,.1167E-4,0
PARS 1,2024-039Q,2026-06-06T19:50:04.987968,15.45510691,.0010812,97.4823,138.4221,142.7945,217.4055,0,U,59065,999,12704,.27458E-3,.13113E-3,0
RESURS-P 4,2024-061A,2026-06-06T21:05:05.786880,15.32072520,.0001389,97.2748,105.9576,131.7378,228.3983,0,U,59371,999,12218,.1191E-3,.3611E-4,0
LEGION 1,2024-081A,2026-06-06T19:15:42.050592,15.16594946,.0010454,97.5013,235.7709,51.3567,308.8600,0,U,59625,999,11596,.20942E-3,.4028E-4,0
LEGION 2,2024-081B,2026-06-06T19:58:40.521216,15.16574443,.0011777,97.5013,235.8983,20.1765,339.9931,0,U,59626,999,11597,.23471E-3,.4522E-4,0
ALOS-4 (DAICHI-4),2024-123A,2026-06-06T19:27:22.619808,14.79475508,.0001682,97.9239,255.1300,98.6257,261.5145,0,U,60182,999,10434,.23294E-3,.1689E-4,0
LEGION 3,2024-146A,2026-06-06T18:51:09.060192,15.15957597,.000681,45.0006,86.3374,103.8680,256.2957,0,U,60452,999,10044,.25519E-3,.4719E-4,0
LEGION 4,2024-146B,2026-06-06T18:55:31.514016,15.15960534,.0014016,44.9999,178.2322,254.4856,105.4475,0,U,60453,999,9929,.2368E-3,.4367E-4,0
SENTINEL-2C,2024-157A,2026-06-06T14:42:51.466752,14.30814942,.0001202,98.5692,232.5443,78.7355,281.3963,0,U,60989,999,9147,.60587E-4,.115E-5,0
IONOSFERA-M 1,2024-199A,2026-06-06T20:32:27.449664,14.22752393,.000163,98.7186,31.1366,124.2949,235.8383,0,U,61735,999,12623,.42279E-4,.51E-6,0
IONOSFERA-M 2,2024-199B,2026-06-06T19:40:36.590016,14.22755595,.0001446,98.7185,31.0117,48.1573,311.9729,0,U,61736,999,12935,.43006E-4,.52E-6,0
PRSC-EO1,2025-012A,2026-06-05T18:50:56.296320,15.17617532,.00043082,97.4223,229.4677,306.3423,53.7413,0,U,62725,999,7646,.23021059E-3,.4564E-4,0
BIOMASS,2025-090A,2026-06-06T19:20:51.075744,14.67536140,.0001521,98.0739,345.2743,87.8145,272.3234,0,U,63772,999,5916,.15846E-3,.851E-5,0
GOSAT-GW (IBUKI GW),2025-141A,2026-06-06T19:50:14.973216,14.67553247,.0001424,98.0571,95.3121,84.1841,275.9526,0,U,64694,999,5032,.1547E-3,.83E-5,0
IONOSFERA-M 3,2025-155A,2026-06-06T19:52:43.462848,14.21484698,.0000392,98.6025,119.9944,180.9770,179.1407,0,U,64876,999,4493,.49553E-4,.66E-6,0
